{"fetchedAt":"2026-06-29T18:07:57.123Z","satellites":[{"id":"67686","name":"UITMSAT-2","constellationId":"stations","omm":{"OBJECT_NAME":"UITMSAT-2","OBJECT_ID":"1998-067YC","EPOCH":"2026-06-29T08:43:01.458912","MEAN_MOTION":15.66637458,"ECCENTRICITY":0.0004714,"INCLINATION":51.6239,"RA_OF_ASC_NODE":230.6105,"ARG_OF_PERICENTER":273.2862,"MEAN_ANOMALY":86.7594,"EPHEMERIS_TYPE":0,"CLASSIFICATION_TYPE":"U","NORAD_CAT_ID":67686,"ELEMENT_SET_NO":999,"REV_AT_EPOCH":2221,"BSTAR":0.00065185,"MEAN_MOTION_DOT":0.00069804,"MEAN_MOTION_DDOT":0}},{"id":"67687","name":"LEOPARD","constellationId":"stations","omm":{"OBJECT_NAME":"LEOPARD","OBJECT_ID":"1998-067YD","EPOCH":"2026-06-29T08:17:49.452000","MEAN_MOTION":15.62172184,"ECCENTRICITY":0.0005135,"INCLINATION":51.6273,"RA_OF_ASC_NODE":232.7656,"ARG_OF_PERICENTER":253.3703,"MEAN_ANOMALY":106.6727,"EPHEMERIS_TYPE":0,"CLASSIFICATION_TYPE":"U","NORAD_CAT_ID":67687,"ELEMENT_SET_NO":999,"REV_AT_EPOCH":2210,"BSTAR":0.00048256,"MEAN_MOTION_DOT":0.00042972,"MEAN_MOTION_DDOT":0}},{"id":"67688","name":"HMU-SAT2","constellationId":"stations","omm":{"OBJECT_NAME":"HMU-SAT2","OBJECT_ID":"1998-067YE","EPOCH":"2026-06-29T08:46:47.095104","MEAN_MOTION":15.64830215,"ECCENTRICITY":0.000479,"INCLINATION":51.6254,"RA_OF_ASC_NODE":231.3905,"ARG_OF_PERICENTER":265.0761,"MEAN_ANOMALY":94.9687,"EPHEMERIS_TYPE":0,"CLASSIFICATION_TYPE":"U","NORAD_CAT_ID":67688,"ELEMENT_SET_NO":999,"REV_AT_EPOCH":2212,"BSTAR":0.00058957,"MEAN_MOTION_DOT":0.00058566,"MEAN_MOTION_DDOT":0}},{"id":"67796","name":"CREW DRAGON 12","constellationId":"stations","omm":{"OBJECT_NAME":"CREW DRAGON 12","OBJECT_ID":"2026-031A","EPOCH":"2026-06-29T12:12:43.624800","MEAN_MOTION":15.49477794,"ECCENTRICITY":0.0004278,"INCLINATION":51.632,"RA_OF_ASC_NODE":239.098,"ARG_OF_PERICENTER":246.9974,"MEAN_ANOMALY":113.0563,"EPHEMERIS_TYPE":0,"CLASSIFICATION_TYPE":"U","NORAD_CAT_ID":67796,"ELEMENT_SET_NO":999,"REV_AT_EPOCH":62603,"BSTAR":0.00010902,"MEAN_MOTION_DOT":0.0000566,"MEAN_MOTION_DDOT":0}},{"id":"68319","name":"PROGRESS-MS 33","constellationId":"stations","omm":{"OBJECT_NAME":"PROGRESS-MS 33","OBJECT_ID":"2026-058A","EPOCH":"2026-06-29T12:12:43.624800","MEAN_MOTION":15.49477794,"ECCENTRICITY":0.0004278,"INCLINATION":51.632,"RA_OF_ASC_NODE":239.098,"ARG_OF_PERICENTER":246.9974,"MEAN_ANOMALY":113.0563,"EPHEMERIS_TYPE":0,"CLASSIFICATION_TYPE":"U","NORAD_CAT_ID":68319,"ELEMENT_SET_NO":999,"REV_AT_EPOCH":66149,"BSTAR":0.00010902,"MEAN_MOTION_DOT":0.0000566,"MEAN_MOTION_DDOT":0}},{"id":"68689","name":"CYGNUS NG-24","constellationId":"stations","omm":{"OBJECT_NAME":"CYGNUS NG-24","OBJECT_ID":"2026-079A","EPOCH":"2026-06-28T16:05:22.337952","MEAN_MOTION":15.49468267,"ECCENTRICITY":0.00042679,"INCLINATION":51.632,"RA_OF_ASC_NODE":243.2491,"ARG_OF_PERICENTER":243.5322,"MEAN_ANOMALY":116.5229,"EPHEMERIS_TYPE":0,"CLASSIFICATION_TYPE":"U","NORAD_CAT_ID":68689,"ELEMENT_SET_NO":999,"REV_AT_EPOCH":67908,"BSTAR":0.00010963493,"MEAN_MOTION_DOT":0.00005693,"MEAN_MOTION_DDOT":0}},{"id":"68837","name":"PROGRESS-MS 34","constellationId":"stations","omm":{"OBJECT_NAME":"PROGRESS-MS 34","OBJECT_ID":"2026-093A","EPOCH":"2026-06-28T16:05:22.337952","MEAN_MOTION":15.49468267,"ECCENTRICITY":0.00042679,"INCLINATION":51.632,"RA_OF_ASC_NODE":243.2491,"ARG_OF_PERICENTER":243.5322,"MEAN_ANOMALY":116.5229,"EPHEMERIS_TYPE":0,"CLASSIFICATION_TYPE":"U","NORAD_CAT_ID":68837,"ELEMENT_SET_NO":999,"REV_AT_EPOCH":69681,"BSTAR":0.00010963493,"MEAN_MOTION_DOT":0.00005693,"MEAN_MOTION_DDOT":0}},{"id":"69049","name":"TIANZHOU-10","constellationId":"stations","omm":{"OBJECT_NAME":"TIANZHOU-10","OBJECT_ID":"2026-102A","EPOCH":"2026-06-28T14:53:48.360768","MEAN_MOTION":15.61304526,"ECCENTRICITY":0.00083389,"INCLINATION":41.4685,"RA_OF_ASC_NODE":252.3977,"ARG_OF_PERICENTER":172.7064,"MEAN_ANOMALY":187.3897,"EPHEMERIS_TYPE":0,"CLASSIFICATION_TYPE":"U","NORAD_CAT_ID":69049,"ELEMENT_SET_NO":999,"REV_AT_EPOCH":774,"BSTAR":0.00023071257,"MEAN_MOTION_DOT":0.00019914,"MEAN_MOTION_DDOT":0}},{"id":"69180","name":"SHENZHOU-23 (SZ-23)","constellationId":"stations","omm":{"OBJECT_NAME":"SHENZHOU-23 (SZ-23)","OBJECT_ID":"2026-113A","EPOCH":"2026-06-28T14:53:48.360768","MEAN_MOTION":15.61304526,"ECCENTRICITY":0.00083389,"INCLINATION":41.4685,"RA_OF_ASC_NODE":252.3977,"ARG_OF_PERICENTER":172.7064,"MEAN_ANOMALY":187.3897,"EPHEMERIS_TYPE":0,"CLASSIFICATION_TYPE":"U","NORAD_CAT_ID":69180,"ELEMENT_SET_NO":999,"REV_AT_EPOCH":29514,"BSTAR":0.00023071257,"MEAN_MOTION_DOT":0.00019914,"MEAN_MOTION_DDOT":0}}]}