UITMSAT-2               
1 67686U 98067YC  26180.36321133  .00069804  00000+0  65185-3 0  9996
2 67686  51.6239 230.6105 0004714 273.2862  86.7594 15.66637458 22211
LEOPARD                 
1 67687U 98067YD  26180.34571125  .00042972  00000+0  48256-3 0  9990
2 67687  51.6273 232.7656 0005135 253.3703 106.6727 15.62172184 22109
HMU-SAT2                
1 67688U 98067YE  26180.36582286  .00058566  00000+0  58957-3 0  9998
2 67688  51.6254 231.3905 0004790 265.0761  94.9687 15.64830215 22125
CREW DRAGON 12          
1 67796U 26031A   26180.50883825  .00005660  00000+0  10902-3 0  9994
2 67796  51.6320 239.0980 0004278 246.9974 113.0563 15.49477794626030
PROGRESS-MS 33          
1 68319U 26058A   26180.50883825  .00005660  00000+0  10902-3 0  9995
2 68319  51.6320 239.0980 0004278 246.9974 113.0563 15.49477794661491
CYGNUS NG-24            
1 68689U 26079A   26179.67039743  .00005693  00000+0  10963-3 0  9999
2 68689  51.6320 243.2491 0004267 243.5322 116.5229 15.49468267679089
PROGRESS-MS 34          
1 68837U 26093A   26179.67039743  .00005693  00000+0  10963-3 0  9990
2 68837  51.6320 243.2491 0004267 243.5322 116.5229 15.49468267696814
TIANZHOU-10             
1 69049U 26102A   26179.62069862  .00019914  00000+0  23071-3 0  9992
2 69049  41.4685 252.3977 0008338 172.7064 187.3897 15.61304526  7746
SHENZHOU-23 (SZ-23)     
1 69180U 26113A   26179.62069862  .00019914  00000+0  23071-3 0  9990
2 69180  41.4685 252.3977 0008338 172.7064 187.3897 15.61304526295145
